     2.10           NAVIGATION DATA                         RINEX VERSION / TYPE
SPIDER V4,0,0,3554                      2015 03 24 06:04    PGM / RUN BY / DATE 
   1.6764D-08 -7.4506D-09 -5.9605D-08  1.1921D-07           ION ALPHA           
   1.3107D+05 -1.4746D+05  6.5536D+04 -1.3107D+05           ION BETA            
    2.793967723846D-09 4.440892098501D-15   147456     1828 DELTA-UTC: A0,A1,T,W
    16                                                      LEAP SECONDS        
                                                            END OF HEADER       
 5 15 01 16 16 00  0.0-2.920515835285D-04 5.115907697473D-12 0.000000000000D+00
    2.200000000000D+01-1.484375000000D+01 5.234860989134D-09 1.858450831823D+00
   -6.686896085739D-07 4.054361023009D-03 7.607042789459D-06 5.153748123169D+03
    4.896000000000D+05-6.891787052155D-08 1.486641011925D+00 1.098960638046D-07
    9.462604686210D-01 2.277812500000D+02 4.210670601389D-01-8.252486694005D-09
   -3.753727884082D-10 1.000000000000D+00 1.827000000000D+03 0.000000000000D+00
    2.000000000000D+00 0.000000000000D+00-1.071020960808D-08 2.200000000000D+01
    4.896000000000D+05 0.000000000000D+00
 2 15 01 16 16 00  0.0 5.422243848443D-04 2.273736754432D-12 0.000000000000D+00
    4.000000000000D+01 7.375000000000D+00 5.455227380935D-09-4.670818843610D-01
    6.016343832016D-07 1.420483796392D-02 7.038936018944D-06 5.153742633820D+03
    4.896000000000D+05 1.676380634308D-08 4.167209455743D-01 2.272427082062D-07
    9.405437504967D-01 2.355625000000D+02-2.340530245119D+00-8.597501377494D-09
    4.146601395583D-10 1.000000000000D+00 1.827000000000D+03 0.000000000000D+00
    2.000000000000D+00 0.000000000000D+00-2.048909664154D-08 4.000000000000D+01
    4.896000000000D+05 0.000000000000D+00
 6 15 01 16 16 00  0.0 5.326792597771D-05 1.068656274583D-11 0.000000000000D+00
    9.800000000000D+01 7.218750000000D+00 4.845559065103D-09 1.668551561573D+00
    2.924352884293D-07 4.674079827964D-04 7.148832082748D-06 5.153671913147D+03
    4.896000000000D+05-7.450580596924D-09 4.428991580134D-01-3.539025783539D-08
    9.618413697881D-01 2.439687500000D+02 2.423987224340D+00-8.104265702968D-09
    3.943021464892D-10 1.000000000000D+00 1.827000000000D+03 0.000000000000D+00
    2.000000000000D+00 0.000000000000D+00 4.656612873077D-09 9.800000000000D+01
    4.896000000000D+05 0.000000000000D+00
 7 15 01 16 16 00  0.0 4.320456646383D-04 3.296918293927D-12 0.000000000000D+00
    5.300000000000D+01 8.531250000000D+01 4.223390082103D-09-1.651815042898D+00
    4.332512617111D-06 7.957202033140D-03 4.140660166740D-06 5.153742847443D+03
    4.896000000000D+05 2.421438694000D-08-2.671738779387D+00-1.192092895508D-07
    9.717918723122D-01 3.062187500000D+02-2.751719515614D+00-8.048549382522D-09
    1.753644451874D-10 1.000000000000D+00 1.827000000000D+03 0.000000000000D+00
    2.000000000000D+00 0.000000000000D+00-1.117587089539D-08 5.300000000000D+01
    4.896000000000D+05 0.000000000000D+00
 9 15 01 16 16 00  0.0-5.702767521143D-05-1.148237060988D-11 0.000000000000D+00
    2.300000000000D+01 6.112500000000D+01 4.307679546400D-09 6.633900012221D-01
    3.080815076828D-06 2.783905947581D-04 1.033022999763D-05 5.153678058624D+03
    4.896000000000D+05-5.587935447693D-09 2.536540813221D+00 1.862645149231D-09
    9.585508105974D-01 1.783437500000D+02 2.274433569916D+00-7.865684992225D-09
   -3.028697570517D-10 1.000000000000D+00 1.827000000000D+03 0.000000000000D+00
    2.000000000000D+00 0.000000000000D+00 4.656612873077D-10 2.300000000000D+01
    4.896000000000D+05 0.000000000000D+00
10 15 01 16 16 00  0.0-1.590289175510D-04-1.705302565824D-12 0.000000000000D+00
    7.900000000000D+01-2.165625000000D+01 5.223074861505D-09 2.198779792804D+00
   -1.356005668640D-06 1.452164899092D-02 7.415190339088D-06 5.153649883270D+03
    4.896000000000D+05-1.341104507446D-07 1.502515918665D+00-2.570450305939D-07
    9.410508096064D-01 2.270000000000D+02 9.163397416169D-01-8.145339513987D-09
   -3.521575253629D-10 1.000000000000D+00 1.827000000000D+03 0.000000000000D+00
    2.800000000000D+00 0.000000000000D+00-3.259629011154D-09 7.900000000000D+01
    4.896000000000D+05 0.000000000000D+00
20 15 01 16 16 00  0.0 2.793082967401D-04 4.206412995700D-12 0.000000000000D+00
    2.900000000000D+01-2.156250000000D+01 5.620234055925D-09 2.785635695719D+00
   -1.180917024612D-06 5.836834781803D-03 6.740912795067D-06 5.155771631241D+03
    4.896000000000D+05-5.587935447693D-09 1.423509238645D+00-1.210719347000D-07
    9.259966818329D-01 2.285000000000D+02 1.236832981733D+00-8.436423115654D-09
   -3.207276388917D-10 1.000000000000D+00 1.827000000000D+03 0.000000000000D+00
    2.000000000000D+00 0.000000000000D+00-8.381903171539D-09 2.900000000000D+01
    4.896000000000D+05 0.000000000000D+00
23 15 01 16 15 59 44.0-8.211890235543D-05-2.614797267597D-12 0.000000000000D+00
    5.000000000000D+00 5.959375000000D+01 4.641979245434D-09-1.559830096842D-01
    3.054738044739D-06 9.703532443382D-03 1.025944948196D-05 5.153681982040D+03
    4.895840000000D+05 6.705522537231D-08 2.546354535830D+00 1.005828380585D-07
    9.496167845165D-01 1.741875000000D+02-2.715205754761D+00-8.165340403821D-09
   -3.214419563857D-10 1.000000000000D+00 1.827000000000D+03 0.000000000000D+00
    2.000000000000D+00 0.000000000000D+00-2.002343535423D-08 5.000000000000D+00
    4.895840000000D+05 0.000000000000D+00
30 15 01 16 16 00  0.0-8.642626926303D-05 1.136868377216D-13 0.000000000000D+00
    7.500000000000D+01 8.312500000000D+01 4.592334068576D-09-1.727116344528D+00
    4.244968295097D-06 9.658013004810D-04 3.516674041748D-06 5.153622053146D+03
    4.896000000000D+05-2.048909664154D-08-2.620576957320D+00 2.048909664154D-08
    9.574556628086D-01 3.101875000000D+02 3.096652284180D+00-8.296059839097D-09
    9.750406038123D-11 1.000000000000D+00 1.827000000000D+03 0.000000000000D+00
    2.800000000000D+00 0.000000000000D+00 3.259629011154D-09 7.500000000000D+01
    4.896000000000D+05 0.000000000000D+00
13 15 01 16 16 00  0.0-7.933750748634D-05-3.524291969370D-12 0.000000000000D+00
    6.700000000000D+01 8.481250000000D+01 4.057668867574D-09-9.201930063951D-01
    4.481524229050D-06 5.335153546184D-03 1.014582812786D-05 5.153694412231D+03
    4.896000000000D+05-5.401670932770D-08 2.649578809387D+00-9.313225746155D-09
    9.754471530721D-01 1.903750000000D+02 2.069548871989D+00-7.815325275828D-09
   -1.671498217615D-10 1.000000000000D+00 1.827000000000D+03 0.000000000000D+00
    2.000000000000D+00 0.000000000000D+00-1.164153218269D-08 6.700000000000D+01
    4.896000000000D+05 0.000000000000D+00
28 15 01 16 16 00  0.0 4.128627479076D-04 2.614797267597D-12 0.000000000000D+00
    1.400000000000D+01-7.937500000000D+01 3.776943202638D-09 1.904673827824D+00
   -4.440546035767D-06 1.974904316012D-02 4.017725586891D-06 5.153691532135D+03
    4.896000000000D+05 2.011656761169D-07-1.580874682507D+00-3.688037395477D-07
    9.879998284443D-01 3.154062500000D+02-1.680408063489D+00-7.769608956210D-09
   -1.428630963529D-10 1.000000000000D+00 1.827000000000D+03 0.000000000000D+00
    2.000000000000D+00 0.000000000000D+00-1.117587089539D-08 1.400000000000D+01
    4.896000000000D+05 0.000000000000D+00
 5 15 01 16 18 00  0.0-2.920147962868D-04 5.115907697473D-12 0.000000000000D+00
    2.300000000000D+01-1.968750000000D+01 5.197002383994D-09 2.908400979443D+00
   -1.037493348122D-06 4.053524346091D-03 7.193535566330D-06 5.153750259399D+03
    4.968000000000D+05-8.940696716309D-08 1.486581680357D+00 3.725290298462D-09
    9.462581937834D-01 2.342812500000D+02 4.212568284092D-01-8.187483580002D-09
   -3.385855207316D-10 1.000000000000D+00 1.827000000000D+03 0.000000000000D+00
    2.000000000000D+00 0.000000000000D+00-1.071020960808D-08 2.300000000000D+01
    4.968000000000D+05 0.000000000000D+00
 2 15 01 16 18 00  0.0 5.422406829894D-04 2.273736754432D-12 0.000000000000D+00
    6.800000000000D+01 1.559375000000D+01 5.337365216462D-09 5.830440767547D-01
    7.823109626770D-07 1.420611015055D-02 7.227063179016D-06 5.153745138168D+03
    4.968000000000D+05-1.247972249985D-07 4.166594020737D-01 1.806765794754D-07
    9.405466690183D-01 2.314687500000D+02-2.340511803574D+00-8.564999376404D-09
    3.428714256959D-10 1.000000000000D+00 1.827000000000D+03 0.000000000000D+00
    2.000000000000D+00 0.000000000000D+00-2.048909664154D-08 6.800000000000D+01
    4.968000000000D+05 0.000000000000D+00
 7 15 01 16 18 00  0.0 4.320698790252D-04 3.296918293927D-12 0.000000000000D+00
    5.400000000000D+01 9.025000000000D+01 4.348395421516D-09-6.017499026017D-01
    4.598870873451D-06 7.956680026837D-03 4.284083843231D-06 5.153741434097D+03
    4.968000000000D+05 1.471489667892D-07-2.671796422748D+00 9.872019290924D-08
    9.717920025119D-01 3.024687500000D+02-2.751648163248D+00-8.237129200950D-09
    4.500187375522D-11 1.000000000000D+00 1.827000000000D+03 0.000000000000D+00
    2.000000000000D+00 0.000000000000D+00-1.117587089539D-08 5.400000000000D+01
    4.968000000000D+05 0.000000000000D+00
 9 15 01 16 18 00  0.0-5.711056292057D-05-1.148237060988D-11 0.000000000000D+00
    6.800000000000D+01 5.562500000000D+01 4.423755584071D-09 1.719221663226D+00
    2.909451723099D-06 2.775744069368D-04 1.080334186554D-05 5.153674739838D+03
    4.968000000000D+05-2.235174179077D-08 2.536483948132D+00-3.725290298462D-08
    9.585484977239D-01 1.666250000000D+02 2.268780326344D+00-7.905686771892D-09
   -2.900120699145D-10 1.000000000000D+00 1.827000000000D+03 0.000000000000D+00
    2.000000000000D+00 0.000000000000D+00 4.656612873077D-10 6.800000000000D+01
    4.968000000000D+05 0.000000000000D+00
